0 IRIDIUM 33 DEB
1 37558U 97051XT  13285.89926525  .00003535  00000-0  12235-2 0  2517
2 37558 086.4082 139.5141 0107107 045.0864 315.9181 14.32263890190393
0 IRIDIUM 33 DEB
1 37558U 97051XT  13286.87733977  .00003903  00000-0  13506-2 0  2525
2 37558 086.4076 139.1035 0107612 043.0080 317.9803 14.32275925190534
0 IRIDIUM 33 DEB
1 37558U 97051XT  13289.88138733  .00005763  00000-0  19939-2 0  2531
2 37558 086.4046 137.8475 0108238 032.3686 328.5478 14.32317805190969
0 IRIDIUM 33 DEB
1 37558U 97051XT  13295.88918625  .00005575  00000-0  19281-2 0  2546
2 37558 086.4017 135.3453 0107561 013.9004 346.4709 14.32383768191826
